start=new Date('2023-06-04T00:00:00.000Z').valueOf();
sats=[{"ARG_OF_PERICENTER":"84.2455","CLASSIFICATION_TYPE":"U","MEAN_ELEMENT_THEORY":"SGP4","RCS_SIZE":"LARGE","FILE":"3924076","OBJECT_TYPE":"PAYLOAD","REF_FRAME":"TEME","PERIOD":"95.438","MEAN_MOTION":"15.08838677","DECAY_DATE":null,"GP_ID":"233111016","NORAD_CAT_ID":"52001","MEAN_ANOMALY":"275.8641","OBJECT_ID":"2022-025AX","BSTAR":"0.00002345400000","EPHEMERIS_TYPE":"0","APOAPSIS":"540.383","OBJECT_NAME":"STARLINK-3659","RA_OF_ASC_NODE":"233.8863","SEMIMAJOR_AXIS":"6917.884","ECCENTRICITY":"0.00009160","INCLINATION":"53.2158","COUNTRY_CODE":"US","ELEMENT_SET_NO":"999","TLE_LINE1":"1 52001U 22025AX  23154.53335656  .00000086  00000-0  23454-4 0  9996","TLE_LINE2":"2 52001  53.2158 233.8863 0000916  84.2455 275.8641 15.08838677 68427","PERIAPSIS":"539.116","EPOCH":"2023-06-03T12:48:02.006784","MEAN_MOTION_DOT":"0.00000086","REV_AT_EPOCH":"6842","SITE":"AFETR","LAUNCH_DATE":"2022-03-09","TIME_SYSTEM":"UTC","CENTER_NAME":"EARTH","MEAN_MOTION_DDOT":"0.0000000000000"},{"RA_OF_ASC_NODE":"233.9100","OBJECT_NAME":"STARLINK-3668","SEMIMAJOR_AXIS":"6917.885","TIME_SYSTEM":"UTC","LAUNCH_DATE":"2022-03-09","MEAN_MOTION_DDOT":"0.0000000000000","CENTER_NAME":"EARTH","MEAN_MOTION_DOT":"0.00001001","REV_AT_EPOCH":"6842","SITE":"AFETR","EPOCH":"2023-06-03T12:44:06.731808","PERIAPSIS":"539.240","TLE_LINE1":"1 52002U 22025AY  23154.53063347  .00001001  00000-0  80966-4 0  9991","TLE_LINE2":"2 52002  53.2153 233.9100 0000738  91.3109 268.7968 15.08838372 68420","INCLINATION":"53.2153","ECCENTRICITY":"0.00007380","ELEMENT_SET_NO":"999","COUNTRY_CODE":"US","RCS_SIZE":"LARGE","MEAN_ELEMENT_THEORY":"SGP4","CLASSIFICATION_TYPE":"U","ARG_OF_PERICENTER":"91.3109","APOAPSIS":"540.261","MEAN_ANOMALY":"268.7968","NORAD_CAT_ID":"52002","EPHEMERIS_TYPE":"0","BSTAR":"0.00008096600000","OBJECT_ID":"2022-025AY","MEAN_MOTION":"15.08838372","DECAY_DATE":null,"PERIOD":"95.438","REF_FRAME":"TEME","GP_ID":"233110766","FILE":"3924076","OBJECT_TYPE":"PAYLOAD"},{"SEMIMAJOR_AXIS":"6917.884","RA_OF_ASC_NODE":"233.9212","OBJECT_NAME":"STARLINK-3654","ELEMENT_SET_NO":"999","COUNTRY_CODE":"US","INCLINATION":"53.2151","ECCENTRICITY":"0.00006260","PERIAPSIS":"539.316","EPOCH":"2023-06-03T12:37:26.007744","TLE_LINE2":"2 52003  53.2151 233.9212 0000626  77.7626 282.3436 15.08838771 69933","TLE_LINE1":"1 52003U 22025AZ  23154.52599546 -.00001953  00000-0 -10468-3 0  9993","SITE":"AFETR","REV_AT_EPOCH":"6993","MEAN_MOTION_DOT":"-0.00001953","MEAN_MOTION_DDOT":"0.0000000000000","CENTER_NAME":"EARTH","TIME_SYSTEM":"UTC","LAUNCH_DATE":"2022-03-09","ARG_OF_PERICENTER":"77.7626","CLASSIFICATION_TYPE":"U","MEAN_ELEMENT_THEORY":"SGP4","RCS_SIZE":"LARGE","OBJECT_TYPE":"PAYLOAD","FILE":"3924177","GP_ID":"233117555","DECAY_DATE":null,"MEAN_MOTION":"15.08838771","PERIOD":"95.438","REF_FRAME":"TEME","EPHEMERIS_TYPE":"0","BSTAR":"-0.00010468000000","OBJECT_ID":"2022-025AZ","MEAN_ANOMALY":"282.3436","NORAD_CAT_ID":"52003","APOAPSIS":"540.182"},{"SEMIMAJOR_AXIS":"6917.886","OBJECT_NAME":"STARLINK-3537","RA_OF_ASC_NODE":"192.2766","CENTER_NAME":"EARTH","MEAN_MOTION_DDOT":"0.0000000000000","LAUNCH_DATE":"2022-03-19","TIME_SYSTEM":"UTC","REV_AT_EPOCH":"6974","SITE":"AFETR","MEAN_MOTION_DOT":"0.00000124","TLE_LINE2":"2 52088  53.2166 192.2766 0001109  83.5857 276.5262 15.08838103 69741","TLE_LINE1":"1 52088U 22029A   23154.83508587  .00000124  00000-0  25847-4 0  9994","EPOCH":"2023-06-03T20:02:31.419168","PERIAPSIS":"538.984","COUNTRY_CODE":"US","ELEMENT_SET_NO":"999","ECCENTRICITY":"0.00011090","INCLINATION":"53.2166","RCS_SIZE":"LARGE","MEAN_ELEMENT_THEORY":"SGP4","CLASSIFICATION_TYPE":"U","ARG_OF_PERICENTER":"83.5857","APOAPSIS":"540.518","OBJECT_ID":"2022-029A","BSTAR":"0.00002584700000","EPHEMERIS_TYPE":"0","NORAD_CAT_ID":"52088","MEAN_ANOMALY":"276.5262","GP_ID":"233145081","PERIOD":"95.438","REF_FRAME":"TEME","DECAY_DATE":null,"MEAN_MOTION":"15.08838103","FILE":"3924324","OBJECT_TYPE":"PAYLOAD"},{"OBJECT_NAME":"STARLINK-3722","RA_OF_ASC_NODE":"303.0105","SEMIMAJOR_AXIS":"6917.867","MEAN_MOTION_DOT":"0.00000616","REV_AT_EPOCH":"6818","SITE":"AFETR","LAUNCH_DATE":"2022-03-19","TIME_SYSTEM":"UTC","CENTER_NAME":"EARTH","MEAN_MOTION_DDOT":"0.0000000000000","ECCENTRICITY":"0.00009370","INCLINATION":"53.2173","COUNTRY_CODE":"US","ELEMENT_SET_NO":"999","TLE_LINE2":"2 52089  53.2173 303.0105 0000937  98.0244 262.0854 15.08844541 68185","TLE_LINE1":"1 52089U 22029B   23154.72931404  .00000616  00000-0  56752-4 0  9996","PERIAPSIS":"539.083","EPOCH":"2023-06-03T17:30:12.733056","MEAN_ELEMENT_THEORY":"SGP4","RCS_SIZE":"LARGE","ARG_OF_PERICENTER":"98.0244","CLASSIFICATION_TYPE":"U","NORAD_CAT_ID":"52089","MEAN_ANOMALY":"262.0854","BSTAR":"0.00005675200000","OBJECT_ID":"2022-029B","EPHEMERIS_TYPE":"0","APOAPSIS":"540.380","OBJECT_TYPE":"PAYLOAD","FILE":"3924324","REF_FRAME":"TEME","PERIOD":"95.437","MEAN_MOTION":"15.08844541","DECAY_DATE":null,"GP_ID":"233143829"},{"CLASSIFICATION_TYPE":"U","ARG_OF_PERICENTER":"93.4457","RCS_SIZE":"LARGE","MEAN_ELEMENT_THEORY":"SGP4","GP_ID":"233143579","PERIOD":"95.438","REF_FRAME":"TEME","DECAY_DATE":null,"MEAN_MOTION":"15.08835351","OBJECT_TYPE":"PAYLOAD","FILE":"3924324","APOAPSIS":"540.417","BSTAR":"0.00006677700000","OBJECT_ID":"2022-029C","EPHEMERIS_TYPE":"0","NORAD_CAT_ID":"52090","MEAN_ANOMALY":"266.6644","SEMIMAJOR_AXIS":"6917.895","OBJECT_NAME":"STARLINK-3712","RA_OF_ASC_NODE":"303.0615","TLE_LINE1":"1 52090U 22029C   23154.71827874  .00000775  00000-0  66777-4 0  9996","TLE_LINE2":"2 52090  53.2159 303.0615 0000951  93.4457 266.6644 15.08835351 68184","EPOCH":"2023-06-03T17:14:19.283136","PERIAPSIS":"539.102","COUNTRY_CODE":"US","ELEMENT_SET_NO":"999","ECCENTRICITY":"0.00009510","INCLINATION":"53.2159","MEAN_MOTION_DDOT":"0.0000000000000","CENTER_NAME":"EARTH","TIME_SYSTEM":"UTC","LAUNCH_DATE":"2022-03-19","REV_AT_EPOCH":"6818","SITE":"AFETR","MEAN_MOTION_DOT":"0.00000775"},{"OBJECT_NAME":"STARLINK-3713","RA_OF_ASC_NODE":"302.7276","SEMIMAJOR_AXIS":"6917.782","TIME_SYSTEM":"UTC","LAUNCH_DATE":"2022-03-19","MEAN_MOTION_DDOT":"0.0000000000000","CENTER_NAME":"EARTH","MEAN_MOTION_DOT":"0.00010005","REV_AT_EPOCH":"6819","SITE":"AFETR","TLE_LINE2":"2 52091  53.2166 302.7276 0001055  96.8003 263.3109 15.08872161 68193","TLE_LINE1":"1 52091U 22029D   23154.79185433  .00010005  00000-0  64527-3 0  9990","EPOCH":"2023-06-03T19:00:16.214112","PERIAPSIS":"538.917","ECCENTRICITY":"0.00010550","INCLINATION":"53.2166","COUNTRY_CODE":"US","ELEMENT_SET_NO":"999","RCS_SIZE":"LARGE","MEAN_ELEMENT_THEORY":"SGP4","CLASSIFICATION_TYPE":"U","ARG_OF_PERICENTER":"96.8003","APOAPSIS":"540.377","NORAD_CAT_ID":"52091","MEAN_ANOMALY":"263.3109","OBJECT_ID":"2022-029D","BSTAR":"0.00064527000000","EPHEMERIS_TYPE":"0","PERIOD":"95.436","REF_FRAME":"TEME","MEAN_MOTION":"15.08872161","DECAY_DATE":null,"GP_ID":"233144831","OBJECT_TYPE":"PAYLOAD","FILE":"3924324"},{"MEAN_ELEMENT_THEORY":"SGP4","RCS_SIZE":"LARGE","ARG_OF_PERICENTER":"98.7063","CLASSIFICATION_TYPE":"U","NORAD_CAT_ID":"52092","MEAN_ANOMALY":"261.4038","OBJECT_ID":"2022-029E","BSTAR":"0.00007127200000","EPHEMERIS_TYPE":"0","APOAPSIS":"540.408","FILE":"3924324","OBJECT_TYPE":"PAYLOAD","REF_FRAME":"TEME","PERIOD":"95.437","MEAN_MOTION":"15.08841210","DECAY_DATE":null,"GP_ID":"233144581","OBJECT_NAME":"STARLINK-3716","RA_OF_ASC_NODE":"302.7449","SEMIMAJOR_AXIS":"6917.877","MEAN_MOTION_DOT":"0.00000847","REV_AT_EPOCH":"6819","SITE":"AFETR","TIME_SYSTEM":"UTC","LAUNCH_DATE":"2022-03-19","MEAN_MOTION_DDOT":"0.0000000000000","CENTER_NAME":"EARTH","ECCENTRICITY":"0.00009630","INCLINATION":"53.2166","COUNTRY_CODE":"US","ELEMENT_SET_NO":"999","TLE_LINE2":"2 52092  53.2166 302.7449 0000963  98.7063 261.4038 15.08841210 68191","TLE_LINE1":"1 52092U 22029E   23154.78819596  .00000847  00000-0  71272-4 0  9993","PERIAPSIS":"539.075","EPOCH":"2023-06-03T18:55:00.130944"},{"RCS_SIZE":"LARGE","MEAN_ELEMENT_THEORY":"SGP4","CLASSIFICATION_TYPE":"U","ARG_OF_PERICENTER":"94.0095","APOAPSIS":"540.332","NORAD_CAT_ID":"52093","MEAN_ANOMALY":"266.0991","BSTAR":"0.00001108200000","OBJECT_ID":"2022-029F","EPHEMERIS_TYPE":"0","REF_FRAME":"TEME","PERIOD":"95.438","DECAY_DATE":null,"MEAN_MOTION":"15.08833675","GP_ID":"233143329","OBJECT_TYPE":"PAYLOAD","FILE":"3924324","OBJECT_NAME":"STARLINK-3673","RA_OF_ASC_NODE":"303.0994","SEMIMAJOR_AXIS":"6917.900","TIME_SYSTEM":"UTC","LAUNCH_DATE":"2022-03-19","CENTER_NAME":"EARTH","MEAN_MOTION_DDOT":"0.0000000000000","MEAN_MOTION_DOT":"-0.00000111","REV_AT_EPOCH":"6818","SITE":"AFETR","TLE_LINE1":"1 52093U 22029F   23154.71187778 -.00000111  00000-0  11082-4 0  9995","TLE_LINE2":"2 52093  53.2167 303.0994 0000820  94.0095 266.0991 15.08833675 68182","EPOCH":"2023-06-03T17:05:06.240192","PERIAPSIS":"539.197","ECCENTRICITY":"0.00008200","INCLINATION":"53.2167","COUNTRY_CODE":"US","ELEMENT_SET_NO":"999"},{"SITE":"AFETR","REV_AT_EPOCH":"6819","MEAN_MOTION_DOT":"0.00014078","CENTER_NAME":"EARTH","MEAN_MOTION_DDOT":"0.0000000000000","TIME_SYSTEM":"UTC","LAUNCH_DATE":"2022-03-19","ELEMENT_SET_NO":"999","COUNTRY_CODE":"US","INCLINATION":"53.2168","ECCENTRICITY":"0.00013040","EPOCH":"2023-06-03T18:44:25.754496","PERIAPSIS":"539.048","TLE_LINE2":"2 52094  53.2168 302.7793 0001304  95.2747 264.8394 15.08772984 68191","TLE_LINE1":"1 52094U 22029G   23154.78085364  .00014078  00000-0  90246-3 0  9995","SEMIMAJOR_AXIS":"6918.085","RA_OF_ASC_NODE":"302.7793","OBJECT_NAME":"STARLINK-3714","EPHEMERIS_TYPE":"0","OBJECT_ID":"2022-029G","BSTAR":"0.00090246000000","MEAN_ANOMALY":"264.8394","NORAD_CAT_ID":"52094","APOAPSIS":"540.852","OBJECT_TYPE":"PAYLOAD","FILE":"3924324","GP_ID":"233144080","DECAY_DATE":null,"MEAN_MOTION":"15.08772984","PERIOD":"95.442","REF_FRAME":"TEME","MEAN_ELEMENT_THEORY":"SGP4","RCS_SIZE":"LARGE","ARG_OF_PERICENTER":"95.2747","CLASSIFICATION_TYPE":"U"}];
